{
  "type": "FeatureCollection",
  "features": [
    {
      "type": "Feature",
      "properties": {
        "norad_id": 34815,
        "name": "COSMOS 2251 DEB",
        "group": "cosmos-2251-debris",
        "lat": 43.871502615807046,
        "lon": 33.74705711532206,
        "alt_km": 669.9681446727427,
        "timestamp": "2025-12-18T21:31:51.400255+00:00",
        "meta_object_name": "COSMOS 2251 DEB",
        "meta_object_id": "1993-036ABE",
        "meta_epoch": "2025-12-17T02:41:53.551968",
        "meta_mean_motion": 14.78366117,
        "meta_eccentricity": 0.00588329,
        "meta_inclination": 74.045,
        "meta_ra_of_asc_node": 233.2142,
        "meta_arg_of_pericenter": 301.3829,
        "meta_mean_anomaly": 58.1599,
        "meta_ephemeris_type": 0,
        "meta_classification_type": "U",
        "meta_norad_cat_id": 34815,
        "meta_element_set_no": 999,
        "meta_rev_at_epoch": 88692,
        "meta_bstar": 0.00061090147,
        "meta_mean_motion_dot": 4.544e-05,
        "meta_mean_motion_ddot": 0,
        "tle_line1": "1 34815U 93036ABE 25351.11242537  .00004544  00000+0  61090-3 0  9998",
        "tle_line2": "2 34815  74.0450 233.2142 0058832 301.3829  58.1599 14.78366117886926"
      },
      "geometry": {
        "type": "Point",
        "coordinates": [
          33.74705711532206,
          43.871502615807046
        ]
      }
    },
    {
      "type": "Feature",
      "properties": {
        "norad_id": 34816,
        "name": "COSMOS 2251 DEB",
        "group": "cosmos-2251-debris",
        "lat": -46.047813399248746,
        "lon": 115.62777372579608,
        "alt_km": 1156.8137577459847,
        "timestamp": "2025-12-18T21:31:51.400266+00:00",
        "meta_object_name": "COSMOS 2251 DEB",
        "meta_object_id": "1993-036ABF",
        "meta_epoch": "2025-12-17T19:54:35.147808",
        "meta_mean_motion": 13.58338046,
        "meta_eccentricity": 0.03732688,
        "meta_inclination": 73.8866,
        "meta_ra_of_asc_node": 134.8167,
        "meta_arg_of_pericenter": 198.4084,
        "meta_mean_anomaly": 290.8064,
        "meta_ephemeris_type": 0,
        "meta_classification_type": "U",
        "meta_norad_cat_id": 34816,
        "meta_element_set_no": 999,
        "meta_rev_at_epoch": 82852,
        "meta_bstar": 0.0011037715,
        "meta_mean_motion_dot": 1.242e-05,
        "meta_mean_motion_ddot": 0,
        "tle_line1": "1 34816U 93036ABF 25351.82957347  .00001242  00000+0  11038-2 0  9997",
        "tle_line2": "2 34816  73.8866 134.8167 0373268 198.4084 290.8064 13.58338046828520"
      },
      "geometry": {
        "type": "Point",
        "coordinates": [
          115.62777372579608,
          -46.047813399248746
        ]
      }
    },
    {
      "type": "Feature",
      "properties": {
        "norad_id": 34818,
        "name": "COSMOS 2251 DEB",
        "group": "cosmos-2251-debris",
        "lat": -32.26163772683916,
        "lon": 116.02765843998604,
        "alt_km": 788.7030384274667,
        "timestamp": "2025-12-18T21:31:51.400277+00:00",
        "meta_object_name": "COSMOS 2251 DEB",
        "meta_object_id": "1993-036ABH",
        "meta_epoch": "2025-12-18T06:11:51.770112",
        "meta_mean_motion": 14.36973962,
        "meta_eccentricity": 0.00244025,
        "meta_inclination": 74.0361,
        "meta_ra_of_asc_node": 286.7919,
        "meta_arg_of_pericenter": 1.0384,
        "meta_mean_anomaly": 149.0545,
        "meta_ephemeris_type": 0,
        "meta_classification_type": "U",
        "meta_norad_cat_id": 34818,
        "meta_element_set_no": 999,
        "meta_rev_at_epoch": 87449,
        "meta_bstar": 0.00017346225,
        "meta_mean_motion_dot": 4.89e-06,
        "meta_mean_motion_ddot": 0,
        "tle_line1": "1 34818U 93036ABH 25352.25823808  .00000489  00000+0  17346-3 0  9992",
        "tle_line2": "2 34818  74.0361 286.7919 0024402   1.0384 149.0545 14.36973962874497"
      },
      "geometry": {
        "type": "Point",
        "coordinates": [
          116.02765843998604,
          -32.26163772683916
        ]
      }
    },
    {
      "type": "Feature",
      "properties": {
        "norad_id": 34819,
        "name": "COSMOS 2251 DEB",
        "group": "cosmos-2251-debris",
        "lat": 10.151740852858989,
        "lon": 133.7630219167875,
        "alt_km": 690.3931344813891,
        "timestamp": "2025-12-18T21:31:51.400288+00:00",
        "meta_object_name": "COSMOS 2251 DEB",
        "meta_object_id": "1993-036ABJ",
        "meta_epoch": "2025-12-18T04:14:58.147296",
        "meta_mean_motion": 14.64046793,
        "meta_eccentricity": 0.00155932,
        "meta_inclination": 74.0172,
        "meta_ra_of_asc_node": 132.2052,
        "meta_arg_of_pericenter": 226.8297,
        "meta_mean_anomaly": 310.1691,
        "meta_ephemeris_type": 0,
        "meta_classification_type": "U",
        "meta_norad_cat_id": 34819,
        "meta_element_set_no": 999,
        "meta_rev_at_epoch": 88308,
        "meta_bstar": 0.0011802797,
        "meta_mean_motion_dot": 6.178e-05,
        "meta_mean_motion_ddot": 0,
        "tle_line1": "1 34819U 93036ABJ 25352.17706189  .00006178  00000+0  11803-2 0  9998",
        "tle_line2": "2 34819  74.0172 132.2052 0015593 226.8297 310.1691 14.64046793883084"
      },
      "geometry": {
        "type": "Point",
        "coordinates": [
          133.7630219167875,
          10.151740852858989
        ]
      }
    },
    {
      "type": "Feature",
      "properties": {
        "norad_id": 34823,
        "name": "COSMOS 2251 DEB",
        "group": "cosmos-2251-debris",
        "lat": -36.610864211029494,
        "lon": -77.10143549323868,
        "alt_km": 636.4202493647081,
        "timestamp": "2025-12-18T21:31:51.400298+00:00",
        "meta_object_name": "COSMOS 2251 DEB",
        "meta_object_id": "1993-036ABN",
        "meta_epoch": "2025-12-17T16:29:01.822560",
        "meta_mean_motion": 14.54962902,
        "meta_eccentricity": 0.01543529,
        "meta_inclination": 74.0424,
        "meta_ra_of_asc_node": 92.9148,
        "meta_arg_of_pericenter": 176.4751,
        "meta_mean_anomaly": 183.7542,
        "meta_ephemeris_type": 0,
        "meta_classification_type": "U",
        "meta_norad_cat_id": 34823,
        "meta_element_set_no": 999,
        "meta_rev_at_epoch": 88453,
        "meta_bstar": 0.00051395054,
        "meta_mean_motion_dot": 2.564e-05,
        "meta_mean_motion_ddot": 0,
        "tle_line1": "1 34823U 93036ABN 25351.68682665  .00002564  00000+0  51395-3 0  9996",
        "tle_line2": "2 34823  74.0424  92.9148 0154352 176.4751 183.7542 14.54962902884537"
      },
      "geometry": {
        "type": "Point",
        "coordinates": [
          -77.10143549323868,
          -36.610864211029494
        ]
      }
    },
    {
      "type": "Feature",
      "properties": {
        "norad_id": 34845,
        "name": "COSMOS 2251 DEB",
        "group": "cosmos-2251-debris",
        "lat": -15.29765739879631,
        "lon": 132.36392946111187,
        "alt_km": 732.6231685078665,
        "timestamp": "2025-12-18T21:31:51.400308+00:00",
        "meta_object_name": "COSMOS 2251 DEB",
        "meta_object_id": "1993-036ABP",
        "meta_epoch": "2025-12-18T03:20:16.618272",
        "meta_mean_motion": 14.45869846,
        "meta_eccentricity": 0.00226187,
        "meta_inclination": 74.0247,
        "meta_ra_of_asc_node": 138.2724,
        "meta_arg_of_pericenter": 298.416,
        "meta_mean_anomaly": 61.4719,
        "meta_ephemeris_type": 0,
        "meta_classification_type": "U",
        "meta_norad_cat_id": 34845,
        "meta_element_set_no": 999,
        "meta_rev_at_epoch": 87544,
        "meta_bstar": 0.00023548418,
        "meta_mean_motion_dot": 8.12e-06,
        "meta_mean_motion_ddot": 0,
        "tle_line1": "1 34845U 93036ABP 25352.13908123  .00000812  00000+0  23548-3 0  9994",
        "tle_line2": "2 34845  74.0247 138.2724 0022618 298.4160  61.4719 14.45869846875447"
      },
      "geometry": {
        "type": "Point",
        "coordinates": [
          132.36392946111187,
          -15.29765739879631
        ]
      }
    },
    {
      "type": "Feature",
      "properties": {
        "norad_id": 34846,
        "name": "COSMOS 2251 DEB",
        "group": "cosmos-2251-debris",
        "lat": -44.291809615878094,
        "lon": -125.9607849903806,
        "alt_km": 722.3823605996276,
        "timestamp": "2025-12-18T21:31:51.400318+00:00",
        "meta_object_name": "COSMOS 2251 DEB",
        "meta_object_id": "1993-036ABQ",
        "meta_epoch": "2025-12-17T20:51:35.450784",
        "meta_mean_motion": 14.47244487,
        "meta_eccentricity": 0.00261793,
        "meta_inclination": 74.0309,
        "meta_ra_of_asc_node": 252.1826,
        "meta_arg_of_pericenter": 317.9376,
        "meta_mean_anomaly": 41.9772,
        "meta_ephemeris_type": 0,
        "meta_classification_type": "U",
        "meta_norad_cat_id": 34846,
        "meta_element_set_no": 999,
        "meta_rev_at_epoch": 87478,
        "meta_bstar": 0.00058072319,
        "meta_mean_motion_dot": 2.105e-05,
        "meta_mean_motion_ddot": 0,
        "tle_line1": "1 34846U 93036ABQ 25351.86916031  .00002105  00000+0  58072-3 0  9998",
        "tle_line2": "2 34846  74.0309 252.1826 0026179 317.9376  41.9772 14.47244487874786"
      },
      "geometry": {
        "type": "Point",
        "coordinates": [
          -125.9607849903806,
          -44.291809615878094
        ]
      }
    }
  ]
}